NORAD_CAT_ID,OBJECT_NAME,OBJECT_TYPE,EPOCH,MEAN_MOTION,ECCENTRICITY,INCLINATION,RA_OF_ASC_NODE,ARG_OF_PERICENTER,MEAN_ANOMALY,BSTAR,MEAN_MOTION_DOT,MEAN_MOTION_DDOT,TLE_LINE0,TLE_LINE1,TLE_LINE2,SEMIMAJOR_AXIS,PERIOD,APOGEE,PERIGEE,DECAYED
53842.0,STARLINK-4754,PAYLOAD,2023-01-01 17:21:48,15.08828325,0.0001556,53.2169,114.8405,65.0301,295.0853,-0.00013592,-2.45e-05,0.0,0 STARLINK-4754,1 53842U 22114AA  23001.72347940 -.00002450  00000-0 -13592-3 0  9990,2 53842  53.2169 114.8405 0001556  65.0301 295.0853 15.08828325 17401,6917.916,95.438,540.8580000000002,538.705,0.0
53842.0,STARLINK-4754,PAYLOAD,2023-01-02 07:40:15,15.08844546,0.0001309,53.218,112.1642,66.5112,293.6017,-0.00011297,-2.086e-05,0.0,0 STARLINK-4754,1 53842U 22114AA  23002.31962659 -.00002086  00000-0 -11297-3 0  9991,2 53842  53.2180 112.1642 0001309  66.5112 293.6017 15.08844546 16958,6917.866,95.437,540.637,538.826,0.0
53842.0,STARLINK-4754,PAYLOAD,2023-01-02 14:01:48,15.08840035,0.0001327,53.2182,110.975,64.1607,295.9522,-0.00013402,-2.42e-05,0.0,0 STARLINK-4754,1 53842U 22114AA  23002.58458994 -.00002420  00000-0 -13402-3 0  9994,2 53842  53.2182 110.9750 0001327  64.1607 295.9522 15.08840035 17539,6917.88,95.438,540.663,538.827,0.0
53842.0,STARLINK-4754,PAYLOAD,2023-01-02 17:12:34,15.088439,0.0001324,53.2182,110.3796,64.8266,295.2863,-0.00011487,-2.116e-05,0.0,0 STARLINK-4754,1 53842U 22114AA  23002.71706698 -.00002116  00000-0 -11487-3 0  9999,2 53842  53.2182 110.3796 0001324  64.8266 295.2863 15.08843900 17555,6917.868,95.437,540.649,538.818,0.0
53842.0,STARLINK-4754,PAYLOAD,2023-01-03 05:55:39,15.08830796,0.000132,53.2183,108.0003,60.6077,299.5047,8.769299999999999e-05,1.108e-05,0.0,0 STARLINK-4754,1 53842U 22114AA  23003.24698989  .00001108  00000-0  87693-4 0  9992,2 53842  53.2183 108.0003 0001320  60.6077 299.5047 15.08830796 17090,6917.909000000002,95.438,540.687,538.86,0.0
53842.0,STARLINK-4754,PAYLOAD,2023-01-03 13:52:35,15.08829294,0.0001293,53.2182,106.5137,55.3214,304.79,9.1038e-05,1.161e-05,0.0,0 STARLINK-4754,1 53842U 22114AA  23003.57819247  .00001161  00000-0  91038-4 0  9997,2 53842  53.2182 106.5137 0001293  55.3214 304.7900 15.08829294 17686,6917.913000000001,95.438,540.673,538.884,0.0
53842.0,STARLINK-4754,PAYLOAD,2023-01-04 10:32:37,15.08829286,0.0001496999999999,53.2179,102.6484,65.6469,294.4679,1.2658e-05,-8.7e-07,0.0,0 STARLINK-4754,1 53842U 22114AA  23004.43931978 -.00000087  00000-0  12658-4 0  9997,2 53842  53.2179 102.6484 0001497  65.6469 294.4679 15.08829286 17810,6917.913000000001,95.438,540.814,538.743,0.0
53842.0,STARLINK-4754,PAYLOAD,2023-01-04 12:08:00,15.08829718,0.0001508,53.2181,102.351,68.7046,291.4107,1.5572999999999998e-05,-4e-07,0.0,0 STARLINK-4754,1 53842U 22114AA  23004.50555976 -.00000040  00000-0  15573-4 0  9993,2 53842  53.2181 102.3510 0001508  68.7046 291.4107 15.08829718 17282,6917.9119999999975,95.438,540.82,538.734,0.0
53842.0,STARLINK-4754,PAYLOAD,2023-01-04 13:43:23,15.08833391,0.0001508,53.2182,102.0538,67.8414,292.2738,4.7072e-05,4.61e-06,0.0,0 STARLINK-4754,1 53842U 22114AA  23004.57179676  .00000461  00000-0  47072-4 0  9994,2 53842  53.2182 102.0538 0001508  67.8414 292.2738 15.08833391 17831,6917.901,95.438,540.809,538.722,0.0
53842.0,STARLINK-4754,PAYLOAD,2023-01-05 05:37:15,15.08827937,0.0002423,53.2196,99.0851,42.279,317.8389,-5.1524e-05,-1.108e-05,0.0,0 STARLINK-4754,1 53842U 22114AA  23005.23421046 -.00001108  00000-0 -51524-4 0  9997,2 53842  53.2196  99.0851 0002423  42.2790 317.8389 15.08827937 17936,6917.917,95.438,541.4580000000002,538.106,0.0
53842.0,STARLINK-4754,PAYLOAD,2023-01-06 11:49:34,15.08840978,0.0001309,53.2181,93.4301,74.7794,285.3343,5.159600000000001e-05,5.33e-06,0.0,0 STARLINK-4754,1 53842U 22114AA  23006.49276282  .00000533  00000-0  51596-4 0  9994,2 53842  53.2181  93.4301 0001309  74.7794 285.3343 15.08840978 17584,6917.877,95.437,540.648,538.837,0.0
53842.0,STARLINK-4754,PAYLOAD,2023-01-06 15:00:20,15.08849014,0.0001419,53.2179,92.8346,81.9751,278.1402,0.00011454,1.536e-05,0.0,0 STARLINK-4754,1 53842U 22114AA  23006.62523526  .00001536  00000-0  11454-3 0  9997,2 53842  53.2179  92.8346 0001419  81.9751 278.1402 15.08849014 17607,6917.853,95.437,540.6990000000002,538.736,0.0
53842.0,STARLINK-4754,PAYLOAD,2023-01-06 22:57:18,15.08825273,0.0002296,53.2186,91.3501,66.8031,293.3203,1.3185e-05,-7.9e-07,0.0,0 STARLINK-4754,1 53842U 22114AA  23006.95645845 -.00000079  00000-0  13185-4 0  9998,2 53842  53.2186  91.3501 0002296  66.8031 293.3203 15.08825273 17653,6917.925,95.438,541.379,538.202,0.0
53842.0,STARLINK-4754,PAYLOAD,2023-01-07 14:51:09,15.08828498,0.0001361999999999,53.2178,88.3713,103.8324,256.282,-3.0737e-05,-7.77e-06,0.0,0 STARLINK-4754,1 53842U 22114AA  23007.61885983 -.00000777  00000-0 -30737-4 0  9999,2 53842  53.2178  88.3713 0001362 103.8324 256.2820 15.08828498 18291,6917.916,95.438,540.7230000000002,538.8380000000002,0.0
53842.0,STARLINK-4754,PAYLOAD,2023-01-08 05:09:37,15.08839095,0.0001409,53.2183,85.6964,88.8595,271.2559,5.2709000000000015e-06,-2.04e-06,0.0,0 STARLINK-4754,1 53842U 22114AA  23008.21501522 -.00000204  00000-0  52709-5 0  9998,2 53842  53.2183  85.6964 0001409  88.8595 271.2559 15.08839095 17840,6917.883000000002,95.438,540.7230000000002,538.773,0.0
53842.0,STARLINK-4754,PAYLOAD,2023-01-08 11:31:09,15.08847519,0.0001404,53.2175,84.5083,84.7597,275.3555,7.400399999999999e-05,8.900000000000001e-06,0.0,0 STARLINK-4754,1 53842U 22114AA  23008.47996678  .00000890  00000-0  74004-4 0  9997,2 53842  53.2175  84.5083 0001404  84.7597 275.3555 15.08847519 17888,6917.857,95.437,540.694,538.751,0.0
53842.0,STARLINK-4754,PAYLOAD,2023-01-09 05:00:23,15.08833898,6.95e-05,53.2182,81.2395,68.6996,291.4071,0.00015466,2.174e-05,0.0,0 STARLINK-4754,1 53842U 22114AA  23009.20861018  .00002174  00000-0  15466-3 0  9991,2 53842  53.2182  81.2395 0000695  68.6996 291.4071 15.08833898 17990,6917.899,95.438,540.245,539.283,0.0
53842.0,STARLINK-4754,PAYLOAD,2023-01-09 11:21:56,15.08835843,8.78e-05,53.2176,80.0487,84.9482,275.1611,0.00014333,1.994e-05,0.0,0 STARLINK-4754,1 53842U 22114AA  23009.47357016  .00001994  00000-0  14333-3 0  9999,2 53842  53.2176  80.0487 0000878  84.9482 275.1611 15.08835843 18572,6917.893,95.438,540.365,539.151,0.0
53842.0,STARLINK-4754,PAYLOAD,2023-01-09 14:32:42,15.08841103,8.73e-05,53.2175,79.4539,84.0414,276.0678,8.0592e-05,9.95e-06,0.0,0 STARLINK-4754,1 53842U 22114AA  23009.60604919  .00000995  00000-0  80592-4 0  9992,2 53842  53.2175  79.4539 0000873  84.0414 276.0678 15.08841103 18593,6917.877,95.437,540.346,539.138,0.0
53842.0,STARLINK-4754,PAYLOAD,2023-01-10 09:37:20,15.08837676,0.0001025,53.218,75.8874,98.2932,261.8176,-5.4307e-05,-1.152e-05,0.0,0 STARLINK-4754,1 53842U 22114AA  23010.40093679 -.00001152  00000-0 -54307-4 0  9990,2 53842  53.2180  75.8874 0001025  98.2932 261.8176 15.08837676 18172,6917.887,95.438,540.462,539.043,0.0
53842.0,STARLINK-4754,PAYLOAD,2023-01-10 14:23:29,15.08845225,8.56e-05,53.2171,74.9931,91.1204,268.9887,-3.7379e-06,-3.47e-06,0.0,0 STARLINK-4754,1 53842U 22114AA  23010.59965061 -.00000347  00000-0 -37379-5 0  9999,2 53842  53.2171  74.9931 0000856  91.1204 268.9887 15.08845225 18740,6917.864000000001,95.437,540.322,539.137,0.0
53842.0,STARLINK-4754,PAYLOAD,2023-01-11 14:14:15,15.0885857,0.0001054,53.2178,70.5334,98.8528,261.2583,0.00010736,1.422e-05,0.0,0 STARLINK-4754,1 53842U 22114AA  23011.59323487  .00001422  00000-0  10736-3 0  9999,2 53842  53.2178  70.5334 0001054  98.8528 261.2583 15.08858570 18353,6917.824000000001,95.436,540.418,538.9590000000002,0.0
53842.0,STARLINK-4754,PAYLOAD,2023-01-11 20:35:49,15.08836701,0.0001875,53.2164,69.3448,82.0669,278.0536,2.6482e-05,1.33e-06,0.0,0 STARLINK-4754,1 53842U 22114AA  23011.85821294  .00000133  00000-0  26482-4 0  9991,2 53842  53.2164  69.3448 0001875  82.0669 278.0536 15.08836701 18932,6917.89,95.438,541.053,538.4580000000002,0.0
53842.0,STARLINK-4754,PAYLOAD,2023-01-12 09:18:55,15.0882078,0.0001044,53.2173,66.9643,77.5242,282.5866,-8.362e-05,-1.618e-05,0.0,0 STARLINK-4754,1 53842U 22114AA  23012.38814810 -.00001618  00000-0 -83620-4 0  9994,2 53842  53.2173  66.9643 0001044  77.5242 282.5866 15.08820780 18471,6917.939,95.439,540.526,539.082,0.0
53842.0,STARLINK-4754,PAYLOAD,2023-01-12 20:26:37,15.08833256,0.0001271,53.2197,64.887,89.321,270.7927,-4.5946e-05,-1.019e-05,0.0,0 STARLINK-4754,1 53842U 22114AA  23012.85182284 -.00001019  00000-0 -45946-4 0  9993,2 53842  53.2197  64.8870 0001271  89.3210 270.7927 15.08833256 18541,6917.901,95.438,540.645,538.887,0.0
53842.0,STARLINK-4754,PAYLOAD,2023-01-13 12:20:27,15.08850703,0.0001219,53.2184,61.9096,85.0326,275.0805,1.7383e-05,-1.1e-07,0.0,0 STARLINK-4754,1 53842U 22114AA  23013.51420969 -.00000011  00000-0  17383-4 0  9996,2 53842  53.2184  61.9096 0001219  85.0326 275.0805 15.08850703 18648,6917.848000000001,95.437,540.556,538.869,0.0
53842.0,STARLINK-4754,PAYLOAD,2023-01-13 20:17:23,15.08848174,0.0001027,53.2182,60.4233,92.7912,267.3197,-8.1164e-05,-1.58e-05,0.0,0 STARLINK-4754,1 53842U 22114AA  23013.84541237 -.00001580  00000-0 -81164-4 0  9995,2 53842  53.2182  60.4233 0001027  92.7912 267.3197 15.08848174 19239,6917.855,95.437,540.431,539.01,0.0
53842.0,STARLINK-4754,PAYLOAD,2023-01-14 02:38:56,15.08829513,0.000122,53.2173,59.2377,82.5916,277.5215,8.9991e-05,1.144e-05,0.0,0 STARLINK-4754,1 53842U 22114AA  23014.11038020  .00001144  00000-0  89991-4 0  9997,2 53842  53.2173  59.2377 0001220  82.5916 277.5215 15.08829513 18734,6917.911999999999,95.438,540.621,538.933,0.0
53842.0,STARLINK-4754,PAYLOAD,2023-01-14 12:11:14,15.08846509,0.0001085999999999,53.2181,57.4471,86.6207,273.491,0.00014549,2.029e-05,0.0,0 STARLINK-4754,1 53842U 22114AA  23014.50780876  .00002029  00000-0  14549-3 0  9992,2 53842  53.2181  57.4471 0001086  86.6207 273.4910 15.08846509 18793,6917.86,95.437,540.477,538.974,0.0
